[{"OBJECT_NAME":"STARLINK-2032","OBJECT_ID":"2021-012AF","EPOCH":"2026-03-09T01:15:59.035968","MEAN_MOTION":15.65431979,"ECCENTRICITY":0.00102565,"INCLINATION":53.0435,"RA_OF_ASC_NODE":17.0799,"ARG_OF_PERICENTER":79.1502,"MEAN_ANOMALY":281.0667,"EPHEMERIS_TYPE":0,"CLASSIFICATION_TYPE":"U","NORAD_CAT_ID":47649,"ELEMENT_SET_NO":999,"REV_AT_EPOCH":28070,"BSTAR":0.00099601867,"MEAN_MOTION_DOT":0.00102351,"MEAN_MOTION_DDOT":0},{"OBJECT_NAME":"OBJECT C","OBJECT_ID":"2024-095C","EPOCH":"2026-03-09T23:12:48.264192","MEAN_MOTION":15.64234658,"ECCENTRICITY":0.00036336,"INCLINATION":97.5459,"RA_OF_ASC_NODE":168.4809,"ARG_OF_PERICENTER":153.5729,"MEAN_ANOMALY":206.5715,"EPHEMERIS_TYPE":0,"CLASSIFICATION_TYPE":"U","NORAD_CAT_ID":59812,"ELEMENT_SET_NO":999,"REV_AT_EPOCH":10061,"BSTAR":0.0014742718,"MEAN_MOTION_DOT":0.00142363,"MEAN_MOTION_DDOT":0}]
